{
  "type": "FeatureCollection",
  "features": [
    {
      "type": "Feature",
      "properties": {
        "norad_id": 40730,
        "name": "GPS BIIF-10 (PRN 08)",
        "group": "gps-ops",
        "lat": -51.68331633998325,
        "lon": -151.14427354300156,
        "alt_km": 20245.905870409515,
        "timestamp": "2025-12-08T03:50:07.256376+00:00",
        "meta_object_name": "GPS BIIF-10 (PRN 08)",
        "meta_object_id": "2015-033A",
        "meta_epoch": "2025-12-07T06:23:22.646112",
        "meta_mean_motion": 2.00565795,
        "meta_eccentricity": 0.01106155,
        "meta_inclination": 54.1355,
        "meta_ra_of_asc_node": 274.9981,
        "meta_arg_of_pericenter": 26.6749,
        "meta_mean_anomaly": 333.904,
        "meta_ephemeris_type": 0,
        "meta_classification_type": "U",
        "meta_norad_cat_id": 40730,
        "meta_element_set_no": 999,
        "meta_rev_at_epoch": 7614,
        "meta_bstar": 0,
        "meta_mean_motion_dot": -3.3e-07,
        "meta_mean_motion_ddot": 0,
        "tle_line1": "1 40730U 15033A   25341.26623433 -.00000033  00000+0  00000+0 0  9995",
        "tle_line2": "2 40730  54.1355 274.9981 0110615  26.6749 333.9040  2.00565795 76146"
      },
      "geometry": {
        "type": "Point",
        "coordinates": [
          -151.14427354300156,
          -51.68331633998325
        ]
      }
    },
    {
      "type": "Feature",
      "properties": {
        "norad_id": 41019,
        "name": "GPS BIIF-11 (PRN 10)",
        "group": "gps-ops",
        "lat": -47.45972884085462,
        "lon": -96.38951008549266,
        "alt_km": 19898.936841829083,
        "timestamp": "2025-12-08T03:50:07.256386+00:00",
        "meta_object_name": "GPS BIIF-11 (PRN 10)",
        "meta_object_id": "2015-062A",
        "meta_epoch": "2025-12-06T19:50:55.474944",
        "meta_mean_motion": 2.00566966,
        "meta_eccentricity": 0.01106613,
        "meta_inclination": 56.8279,
        "meta_ra_of_asc_node": 38.2311,
        "meta_arg_of_pericenter": 229.7726,
        "meta_mean_anomaly": 129.3101,
        "meta_ephemeris_type": 0,
        "meta_classification_type": "U",
        "meta_norad_cat_id": 41019,
        "meta_element_set_no": 999,
        "meta_rev_at_epoch": 7397,
        "meta_bstar": 0,
        "meta_mean_motion_dot": -7e-07,
        "meta_mean_motion_ddot": 0,
        "tle_line1": "1 41019U 15062A   25340.82703096 -.00000070  00000+0  00000+0 0  9994",
        "tle_line2": "2 41019  56.8279  38.2311 0110661 229.7726 129.3101  2.00566966 73975"
      },
      "geometry": {
        "type": "Point",
        "coordinates": [
          -96.38951008549266,
          -47.45972884085462
        ]
      }
    },
    {
      "type": "Feature",
      "properties": {
        "norad_id": 41328,
        "name": "GPS BIIF-12 (PRN 32)",
        "group": "gps-ops",
        "lat": -0.8466212599858136,
        "lon": -82.3837242257332,
        "alt_km": 20068.152843036893,
        "timestamp": "2025-12-08T03:50:07.256397+00:00",
        "meta_object_name": "GPS BIIF-12 (PRN 32)",
        "meta_object_id": "2016-007A",
        "meta_epoch": "2025-12-05T09:55:37.612128",
        "meta_mean_motion": 2.00560998,
        "meta_eccentricity": 0.00917952,
        "meta_inclination": 55.402,
        "meta_ra_of_asc_node": 97.1478,
        "meta_arg_of_pericenter": 243.3887,
        "meta_mean_anomaly": 115.6411,
        "meta_ephemeris_type": 0,
        "meta_classification_type": "U",
        "meta_norad_cat_id": 41328,
        "meta_element_set_no": 999,
        "meta_rev_at_epoch": 7195,
        "meta_bstar": 0,
        "meta_mean_motion_dot": -1.1e-07,
        "meta_mean_motion_ddot": 0,
        "tle_line1": "1 41328U 16007A   25339.41362977 -.00000011  00000+0  00000+0 0  9994",
        "tle_line2": "2 41328  55.4020  97.1478 0091795 243.3887 115.6411  2.00560998 71958"
      },
      "geometry": {
        "type": "Point",
        "coordinates": [
          -82.3837242257332,
          -0.8466212599858136
        ]
      }
    },
    {
      "type": "Feature",
      "properties": {
        "norad_id": 43873,
        "name": "GPS BIII-1  (PRN 04)",
        "group": "gps-ops",
        "lat": 53.267037413291256,
        "lon": 166.39978121034252,
        "alt_km": 20223.57398705649,
        "timestamp": "2025-12-08T03:50:07.256408+00:00",
        "meta_object_name": "GPS BIII-1  (PRN 04)",
        "meta_object_id": "2018-109A",
        "meta_epoch": "2025-12-06T13:44:13.581888",
        "meta_mean_motion": 2.00553236,
        "meta_eccentricity": 0.00371783,
        "meta_inclination": 55.5639,
        "meta_ra_of_asc_node": 99.7903,
        "meta_arg_of_pericenter": 194.7301,
        "meta_mean_anomaly": 175.7639,
        "meta_ephemeris_type": 0,
        "meta_classification_type": "U",
        "meta_norad_cat_id": 43873,
        "meta_element_set_no": 999,
        "meta_rev_at_epoch": 5121,
        "meta_bstar": 0,
        "meta_mean_motion_dot": -4e-08,
        "meta_mean_motion_ddot": 0,
        "tle_line1": "1 43873U 18109A   25340.57237942 -.00000004  00000+0  00000+0 0  9990",
        "tle_line2": "2 43873  55.5639  99.7903 0037178 194.7301 175.7639  2.00553236 51211"
      },
      "geometry": {
        "type": "Point",
        "coordinates": [
          166.39978121034252,
          53.267037413291256
        ]
      }
    },
    {
      "type": "Feature",
      "properties": {
        "norad_id": 44506,
        "name": "GPS BIII-2  (PRN 18)",
        "group": "gps-ops",
        "lat": -21.33663167372489,
        "lon": -36.72219480371176,
        "alt_km": 20293.466170070536,
        "timestamp": "2025-12-08T03:50:07.256419+00:00",
        "meta_object_name": "GPS BIII-2  (PRN 18)",
        "meta_object_id": "2019-056A",
        "meta_epoch": "2025-12-06T22:22:18.882336",
        "meta_mean_motion": 2.00565727,
        "meta_eccentricity": 0.00577801,
        "meta_inclination": 55.7235,
        "meta_ra_of_asc_node": 338.7828,
        "meta_arg_of_pericenter": 198.4731,
        "meta_mean_anomaly": 328.5143,
        "meta_ephemeris_type": 0,
        "meta_classification_type": "U",
        "meta_norad_cat_id": 44506,
        "meta_element_set_no": 999,
        "meta_rev_at_epoch": 4621,
        "meta_bstar": 0,
        "meta_mean_motion_dot": -8.2e-07,
        "meta_mean_motion_ddot": 0,
        "tle_line1": "1 44506U 19056A   25340.93216299 -.00000082  00000+0  00000+0 0  9994",
        "tle_line2": "2 44506  55.7235 338.7828 0057780 198.4731 328.5143  2.00565727 46210"
      },
      "geometry": {
        "type": "Point",
        "coordinates": [
          -36.72219480371176,
          -21.33663167372489
        ]
      }
    },
    {
      "type": "Feature",
      "properties": {
        "norad_id": 45854,
        "name": "GPS BIII-3  (PRN 23)",
        "group": "gps-ops",
        "lat": -55.67188337128093,
        "lon": -38.966398585226806,
        "alt_km": 20145.64876238446,
        "timestamp": "2025-12-08T03:50:07.256430+00:00",
        "meta_object_name": "GPS BIII-3  (PRN 23)",
        "meta_object_id": "2020-041A",
        "meta_epoch": "2025-12-06T06:48:20.878272",
        "meta_mean_motion": 2.00561679,
        "meta_eccentricity": 0.00603304,
        "meta_inclination": 56.5425,
        "meta_ra_of_asc_node": 36.4371,
        "meta_arg_of_pericenter": 203.1563,
        "meta_mean_anomaly": 159.699,
        "meta_ephemeris_type": 0,
        "meta_classification_type": "U",
        "meta_norad_cat_id": 45854,
        "meta_element_set_no": 999,
        "meta_rev_at_epoch": 4017,
        "meta_bstar": 0,
        "meta_mean_motion_dot": -7e-07,
        "meta_mean_motion_ddot": 0,
        "tle_line1": "1 45854U 20041A   25340.28357498 -.00000070  00000+0  00000+0 0  9999",
        "tle_line2": "2 45854  56.5425  36.4371 0060330 203.1563 159.6990  2.00561679 40178"
      },
      "geometry": {
        "type": "Point",
        "coordinates": [
          -38.966398585226806,
          -55.67188337128093
        ]
      }
    },
    {
      "type": "Feature",
      "properties": {
        "norad_id": 46826,
        "name": "GPS BIII-4  (PRN 14)",
        "group": "gps-ops",
        "lat": -49.01700917917552,
        "lon": 95.2355857738904,
        "alt_km": 20065.56350657196,
        "timestamp": "2025-12-08T03:50:07.256442+00:00",
        "meta_object_name": "GPS BIII-4  (PRN 14)",
        "meta_object_id": "2020-078A",
        "meta_epoch": "2025-11-12T03:01:29.191584",
        "meta_mean_motion": 2.00567032,
        "meta_eccentricity": 0.00639112,
        "meta_inclination": 54.0223,
        "meta_ra_of_asc_node": 219.5836,
        "meta_arg_of_pericenter": 203.4986,
        "meta_mean_anomaly": 326.7753,
        "meta_ephemeris_type": 0,
        "meta_classification_type": "U",
        "meta_norad_cat_id": 46826,
        "meta_element_set_no": 999,
        "meta_rev_at_epoch": 3715,
        "meta_bstar": 0,
        "meta_mean_motion_dot": -3.4e-07,
        "meta_mean_motion_ddot": 0,
        "tle_line1": "1 46826U 20078A   25316.12603231 -.00000034  00000+0  00000+0 0  9994",
        "tle_line2": "2 46826  54.0223 219.5836 0063911 203.4986 326.7753  2.00567032 37154"
      },
      "geometry": {
        "type": "Point",
        "coordinates": [
          95.2355857738904,
          -49.01700917917552
        ]
      }
    }
  ]
}